TIANLIAN 1-05           
1 49011U 21063A   24267.60164385  .00000096  00000+0  00000+0 0  9994
2 49011   0.0806 327.6049 0004138 238.2450  30.5118  1.00272594 11743
STAR ONE D2             
1 49055U 21069A   24267.01231883 -.00000275  00000+0  00000+0 0  9991
2 49055   0.0251 171.5484 0002606   3.8464 121.3067  1.00270827 11595
EUTELSAT QUANTUM        
1 49056U 21069B   24267.53630981  .00000113  00000+0  00000+0 0  9991
2 49056   0.0063 143.6682 0002299  61.0432  38.9391  1.00274332 11594
ZHONGXING-2E            
1 49062U 21071A   24267.57566531 -.00000304  00000+0  00000+0 0  9997
2 49062   0.0396  81.5892 0001514 177.2805  49.3202  1.00273116 11705
TJS-7                   
1 49115U 21077A   24267.57853368 -.00000136  00000+0  00000+0 0  9992
2 49115   0.2797 271.1205 0002760 256.6834 303.8857  1.00270079  3232
CHINASAT 9B             
1 49125U 21080A   24267.54690921 -.00000325  00000+0  00000+0 0  9998
2 49125   0.0169 178.4671 0003775  22.9162  99.7764  1.00269323 11311
SHIJIAN-21 (SJ-21)      
1 49330U 21094A   24267.69241891 -.00000231  00000+0  00000+0 0  9991
2 49330   9.9955  44.5221 0077640  36.2403 320.0184  1.00285105 10920
SES-17                  
1 49332U 21095A   24267.51346028 -.00000284  00000+0  00000+0 0  9991
2 49332   0.0154 147.1921 0001109  50.4477 282.9424  1.00267361 11511
SYRACUSE 4A             
1 49333U 21095B   24267.17826031  .00000124  00000+0  00000+0 0  9993
2 49333   0.0164 181.5081 0001570 355.6291 295.0397  1.00270294 11623
QZS-1R                  
1 49336U 21096A   24266.84020883 -.00000258  00000+0  00000+0 0  9990
2 49336  36.1454  89.0456 0743910 269.8247  80.5556  1.00288525 10667
ZHONGXING-1D            
1 49505U 21114A   24267.55264331 -.00000349  00000+0  00000+0 0  9997
2 49505   0.0464 358.8269 0001949 273.6877  59.4827  1.00273777 10496
STPSAT-6                
1 49817U 21118A   24267.57610103 -.00000058  00000+0  00000+0 0  9998
2 49817   0.0198 158.9787 0001206  97.9054 201.7813  1.00271627 10220
LDPE-1                  
1 49818U 21118B   24267.57896809 -.00000182  00000+0  00000+0 0  9996
2 49818   2.6049  86.7174 0004511 151.3259 235.9453  1.00519464 10308
EXPRESS AMU-7           
1 50001U 21123A   24266.59182398 -.00000253  00000+0  00000+0 0  9999
2 50001   0.0316 253.1262 0000269 214.1850 252.7031  1.00270843 10205
EXPRESS AMU-3           
1 50002U 21123B   24266.70848592 -.00000332  00000+0  00000+0 0  9996
2 50002   0.0218 203.6720 0000267 221.1350 295.1957  1.00269660   692
TIANLIAN 2-02           
1 50005U 21124A   24267.56566235 -.00000027  00000+0  00000+0 0  9997
2 50005   0.4217 273.2591 0002571 313.6659 150.5747  1.00271253 10284
TURKSAT 5B              
1 50212U 21126A   24267.53509350  .00000134  00000+0  00000+0 0  9999
2 50212   0.0686 346.4684 0002236 310.4765 300.5715  1.00270930  9963
INMARSAT 6-F1           
1 50319U 21128A   24266.07306319 -.00000181  00000+0  00000+0 0  9990
2 50319   0.0140 188.2650 0000291  65.0632 218.1449  1.00269838  9891
SHIYAN 12 01 (SY-12 01) 
1 50321U 21129A   24267.74908770 -.00000080  00000+0  00000+0 0  9996
2 50321   2.0353  89.1977 0001253 279.0322  72.9566  1.00113560 10185
SHIYAN 12 02 (SY-12 02) 
1 50322U 21129B   24267.70119005  .00000055  00000+0  00000+0 0  9999
2 50322   2.0351  89.2195 0003378 152.6193  75.7373  1.00061502 10173
TJS-9                   
1 50574U 21135A   24267.55403340 -.00000312  00000+0  00000+0 0  9993
2 50574   0.0498 287.6046 0000768 328.2968  83.5960  1.00266850 10095
USA 324                 
1 51280U 22006A   24245.30806179 -.00000373  00000+0  00000+0 0  9999
2 51280   1.5574  87.3122 0001485  63.8248  64.4114  1.00091944  9571
USA 325                 
1 51281U 22006B   24260.12966039 -.00000015  00000+0  00000+0 0  9992
2 51281   0.5595  86.6072 0000566 166.9692 218.8866  1.00115184  9726
GOES 18                 
1 51850U 22021A   24267.07052868  .00000085  00000+0  00000+0 0  9994
2 51850   0.0210   0.2671 0000711 260.6002 349.9587  1.00273870   255
ZHONGXING-6D            
1 52255U 22038A   24266.64702459 -.00000364  00000+0  00000+0 0  9993
2 52255   0.0374 240.6977 0002285 341.2301 138.0660  1.00273582  9080
NILESAT 301             
1 52817U 22061A   24267.59695233 -.00000070  00000+0  00000+0 0  9993
2 52817   0.0590   1.3220 0001948 190.3368  19.1736  1.00272077  8404
CMS-02 (GSAT 24)        
1 52903U 22067A   24267.58174330 -.00000178  00000+0  00000+0 0  9993
2 52903   0.0393 250.0635 0005532 224.5673 180.7219  1.00272811  8278
MEASAT 3D               
1 52904U 22067B   24267.57618615 -.00000255  00000+0  00000+0 0  9998
2 52904   0.0475 334.8321 0001458 273.6158  53.4178  1.00271878  8316
SES-22                  
1 52933U 22071A   24267.47900301  .00000093  00000+0  00000+0 0  9999
2 52933   0.0184 138.3194 0002305  89.0602 168.8661  1.00271796  1179
WFOV (USA 332)          
1 52940U 22073A   24267.55047132 -.00000374  00000+0  00000+0 0  9995
2 52940   2.0762  86.8115 0001816  52.8746 180.6601  1.00273122  8037
TIANLIAN 2-03           
1 53100U 22078A   24266.96439596  .00000060  00000+0  00000+0 0  9993
2 53100   0.9806 278.5852 0001762 271.6747 169.7460  1.00272699  8211
SBIRS GEO-6 (USA 336)   
1 53355U 22092A   24267.55438094 -.00000306  00000+0  00000+0 0  9993
2 53355   4.4504 311.4348 0001772 244.0359 145.8429  1.00270429  7902
