OBJECT_NAME,OBJECT_ID,EPOCH,MEAN_MOTION,ECCENTRICITY,INCLINATION,RA_OF_ASC_NODE,ARG_OF_PERICENTER,MEAN_ANOMALY,EPHEMERIS_TYPE,CLASSIFICATION_TYPE,NORAD_CAT_ID,ELEMENT_SET_NO,REV_AT_EPOCH,BSTAR,MEAN_MOTION_DOT,MEAN_MOTION_DDOT
TIANLIAN 1-05,2021-063A,2024-09-23T14:26:22.028640,1.00272594,.0004138,0.0806,327.6049,238.2450,30.5118,0,U,49011,999,1174,0,.96E-6,0
STAR ONE D2,2021-069A,2024-09-23T00:17:44.346912,1.00270827,.0002606,0.0251,171.5484,3.8464,121.3067,0,U,49055,999,1159,0,-.275E-5,0
EUTELSAT QUANTUM,2021-069B,2024-09-23T12:52:17.167584,1.00274332,.0002299,0.0063,143.6682,61.0432,38.9391,0,U,49056,999,1159,0,.113E-5,0
ZHONGXING-2E,2021-071A,2024-09-23T13:48:57.482784,1.00273116,.0001514,0.0396,81.5892,177.2805,49.3202,0,U,49062,999,1170,0,-.304E-5,0
TJS-7,2021-077A,2024-09-23T13:53:05.309952,1.00270079,.000276,0.2797,271.1205,256.6834,303.8857,0,U,49115,999,323,0,-.136E-5,0
CHINASAT 9B,2021-080A,2024-09-23T13:07:32.955744,1.00269323,.0003775,0.0169,178.4671,22.9162,99.7764,0,U,49125,999,1131,0,-.325E-5,0
SHIJIAN-21 (SJ-21),2021-094A,2024-09-23T16:37:04.993824,1.00285105,.007764,9.9955,44.5221,36.2403,320.0184,0,U,49330,999,1092,0,-.231E-5,0
SES-17,2021-095A,2024-09-23T12:19:22.968192,1.00267361,.0001109,0.0154,147.1921,50.4477,282.9424,0,U,49332,999,1151,0,-.284E-5,0
SYRACUSE 4A,2021-095B,2024-09-23T04:16:41.690784,1.00270294,.000157,0.0164,181.5081,355.6291,295.0397,0,U,49333,999,1162,0,.124E-5,0
QZS-1R,2021-096A,2024-09-22T20:09:54.042912,1.00288525,.074391,36.1454,89.0456,269.8247,80.5556,0,U,49336,999,1066,0,-.258E-5,0
ZHONGXING-1D,2021-114A,2024-09-23T13:15:48.381984,1.00273777,.0001949,0.0464,358.8269,273.6877,59.4827,0,U,49505,999,1049,0,-.349E-5,0
STPSAT-6,2021-118A,2024-09-23T13:49:35.128992,1.00271627,.0001206,0.0198,158.9787,97.9054,201.7813,0,U,49817,999,1022,0,-.58E-6,0
LDPE-1,2021-118B,2024-09-23T13:53:42.842976,1.00519464,.0004511,2.6049,86.7174,151.3259,235.9453,0,U,49818,999,1030,0,-.182E-5,0
EXPRESS AMU-7,2021-123A,2024-09-22T14:12:13.591872,1.00270843,.0000269,0.0316,253.1262,214.1850,252.7031,0,U,50001,999,1020,0,-.253E-5,0
EXPRESS AMU-3,2021-123B,2024-09-22T17:00:13.183488,1.00269660,.0000267,0.0218,203.6720,221.1350,295.1957,0,U,50002,999,69,0,-.332E-5,0
TIANLIAN 2-02,2021-124A,2024-09-23T13:34:33.227040,1.00271253,.0002571,0.4217,273.2591,313.6659,150.5747,0,U,50005,999,1028,0,-.27E-6,0
TURKSAT 5B,2021-126A,2024-09-23T12:50:32.078400,1.00270930,.0002236,0.0686,346.4684,310.4765,300.5715,0,U,50212,999,996,0,.134E-5,0
INMARSAT 6-F1,2021-128A,2024-09-22T01:45:12.659616,1.00269838,.0000291,0.0140,188.2650,65.0632,218.1449,0,U,50319,999,989,0,-.181E-5,0
SHIYAN 12 01 (SY-12 01),2021-129A,2024-09-23T17:58:41.177280,1.00113560,.0001253,2.0353,89.1977,279.0322,72.9566,0,U,50321,999,1018,0,-.8E-6,0
SHIYAN 12 02 (SY-12 02),2021-129B,2024-09-23T16:49:42.820320,1.00061502,.0003378,2.0351,89.2195,152.6193,75.7373,0,U,50322,999,1017,0,.55E-6,0
TJS-9,2021-135A,2024-09-23T13:17:48.485760,1.00266850,.0000768,0.0498,287.6046,328.2968,83.5960,0,U,50574,999,1009,0,-.312E-5,0
USA 324,2022-006A,2024-09-01T07:23:36.538656,1.00091944,.0001485,1.5574,87.3122,63.8248,64.4114,0,U,51280,999,957,0,-.373E-5,0
USA 325,2022-006B,2024-09-16T03:06:42.657696,1.00115184,.0000566,0.5595,86.6072,166.9692,218.8866,0,U,51281,999,972,0,-.15E-6,0
GOES 18,2022-021A,2024-09-23T01:41:33.677952,1.00273870,.0000711,0.0210,0.2671,260.6002,349.9587,0,U,51850,999,25,0,.85E-6,0
ZHONGXING-6D,2022-038A,2024-09-22T15:31:42.924576,1.00273582,.0002285,0.0374,240.6977,341.2301,138.0660,0,U,52255,999,908,0,-.364E-5,0
NILESAT 301,2022-061A,2024-09-23T14:19:36.681312,1.00272077,.0001948,0.0590,1.3220,190.3368,19.1736,0,U,52817,999,840,0,-.7E-6,0
CMS-02 (GSAT 24),2022-067A,2024-09-23T13:57:42.621120,1.00272811,.0005532,0.0393,250.0635,224.5673,180.7219,0,U,52903,999,827,0,-.178E-5,0
MEASAT 3D,2022-067B,2024-09-23T13:49:42.483360,1.00271878,.0001458,0.0475,334.8321,273.6158,53.4178,0,U,52904,999,831,0,-.255E-5,0
SES-22,2022-071A,2024-09-23T11:29:45.860064,1.00271796,.0002305,0.0184,138.3194,89.0602,168.8661,0,U,52933,999,117,0,.93E-6,0
WFOV (USA 332),2022-073A,2024-09-23T13:12:40.722048,1.00273122,.0001816,2.0762,86.8115,52.8746,180.6601,0,U,52940,999,803,0,-.374E-5,0
TIANLIAN 2-03,2022-078A,2024-09-22T23:08:43.810944,1.00272699,.0001762,0.9806,278.5852,271.6747,169.7460,0,U,53100,999,821,0,.6E-6,0
SBIRS GEO-6 (USA 336),2022-092A,2024-09-23T13:18:18.513216,1.00270429,.0001772,4.4504,311.4348,244.0359,145.8429,0,U,53355,999,790,0,-.306E-5,0
